[{"OBJECT_NAME":"STARLINK-3238","OBJECT_ID":"2021-115L","EPOCH":"2026-03-09T12:50:49.861248","MEAN_MOTION":15.08822245,"ECCENTRICITY":0.00015744,"INCLINATION":53.2191,"RA_OF_ASC_NODE":149.8428,"ARG_OF_PERICENTER":105.1106,"MEAN_ANOMALY":255.0061,"EPHEMERIS_TYPE":0,"CLASSIFICATION_TYPE":"U","NORAD_CAT_ID":49734,"ELEMENT_SET_NO":999,"REV_AT_EPOCH":23551,"BSTAR":0.00016365772,"MEAN_MOTION_DOT":2.316e-5,"MEAN_MOTION_DDOT":0},{"OBJECT_NAME":"DELTA 1 DEB","OBJECT_ID":"1972-058EG","EPOCH":"2026-03-09T15:29:57.375744","MEAN_MOTION":14.93143945,"ECCENTRICITY":0.0071537,"INCLINATION":98.4418,"RA_OF_ASC_NODE":299.7647,"ARG_OF_PERICENTER":185.1751,"MEAN_ANOMALY":174.8735,"EPHEMERIS_TYPE":0,"CLASSIFICATION_TYPE":"U","NORAD_CAT_ID":8314,"ELEMENT_SET_NO":999,"REV_AT_EPOCH":83297,"BSTAR":0.00043799,"MEAN_MOTION_DOT":4.734e-5,"MEAN_MOTION_DDOT":0}]
